[{"OBJECT_NAME":"ZHUHAI-1 03D","OBJECT_ID":"2019-060E","EPOCH":"2026-03-09T22:12:44.409600","MEAN_MOTION":15.43807554,"ECCENTRICITY":0.00080361,"INCLINATION":97.5253,"RA_OF_ASC_NODE":214.8478,"ARG_OF_PERICENTER":305.9727,"MEAN_ANOMALY":54.0775,"EPHEMERIS_TYPE":0,"CLASSIFICATION_TYPE":"U","NORAD_CAT_ID":44538,"ELEMENT_SET_NO":999,"REV_AT_EPOCH":36073,"BSTAR":0.00071898588,"MEAN_MOTION_DOT":0.00032597,"MEAN_MOTION_DDOT":0},{"OBJECT_NAME":"STARLINK-1273","OBJECT_ID":"2020-019H","EPOCH":"2026-03-09T12:49:52.137408","MEAN_MOTION":15.44237041,"ECCENTRICITY":0.00021479,"INCLINATION":53.0509,"RA_OF_ASC_NODE":155.5528,"ARG_OF_PERICENTER":0.3875,"MEAN_ANOMALY":359.7131,"EPHEMERIS_TYPE":0,"CLASSIFICATION_TYPE":"U","NORAD_CAT_ID":45367,"ELEMENT_SET_NO":999,"REV_AT_EPOCH":32987,"BSTAR":0.0015436718,"MEAN_MOTION_DOT":0.00072311,"MEAN_MOTION_DDOT":0}]
